NORAD_CAT_ID,OBJECT_NAME,OBJECT_TYPE,EPOCH,MEAN_MOTION,ECCENTRICITY,INCLINATION,RA_OF_ASC_NODE,ARG_OF_PERICENTER,MEAN_ANOMALY,BSTAR,MEAN_MOTION_DOT,MEAN_MOTION_DDOT,TLE_LINE0,TLE_LINE1,TLE_LINE2,SEMIMAJOR_AXIS,PERIOD,APOGEE,PERIGEE,DECAYED
56462.0,STARLINK-6045,PAYLOAD,2024-02-04 14:30:06,14.98331402,0.0002583,70.0001,230.8008,267.4206,92.6657,1.0437e-06,-8e-07,0.0,0 STARLINK-6045,1 56462U 23064Q   24035.60424747 -.00000080  00000-0  10437-5 0  9995,2 56462  70.0001 230.8008 0002583 267.4206  92.6657 14.98331402 41789,6950.189,96.107,573.849,570.258,0.0
56462.0,STARLINK-6045,PAYLOAD,2024-02-04 19:18:31,14.98330809,0.0002604,70.0001,230.2958,267.6912,92.3949,-5.8263e-06,-1.62e-06,0.0,0 STARLINK-6045,1 56462U 23064Q   24035.80452785 -.00000162  00000-0 -58263-5 0  9991,2 56462  70.0001 230.2958 0002604 267.6912  92.3949 14.98330809 42172,6950.19,96.107,573.865,570.246,0.0
56462.0,STARLINK-6045,PAYLOAD,2024-02-04 22:30:47,14.98331859,0.0002596,70.0002,229.9593,267.9407,92.1455,6.2065e-06,-1.9e-07,0.0,0 STARLINK-6045,1 56462U 23064Q   24035.93804668 -.00000019  00000-0  62065-5 0  9991,2 56462  70.0002 229.9593 0002596 267.9407  92.1455 14.98331859 41833,6950.187,96.107,573.856,570.248,0.0
56462.0,STARLINK-6045,PAYLOAD,2024-02-05 14:32:07,14.98329379,0.0002667,70.0,228.2758,269.3847,90.7006,3.9727e-06,-4.6e-07,0.0,0 STARLINK-6045,1 56462U 23064Q   24036.60564773 -.00000046  00000-0  39727-5 0  9995,2 56462  70.0000 228.2758 0002667 269.3847  90.7006 14.98329379 41930,6950.195,96.107,573.913,570.206,0.0
56462.0,STARLINK-6045,PAYLOAD,2024-02-05 19:20:32,14.98329417,0.0002675,70.0,227.771,269.6927,90.3925,4.0669e-06,-4.4e-07,0.0,0 STARLINK-6045,1 56462U 23064Q   24036.80592773 -.00000044  00000-0  40669-5 0  9993,2 56462  70.0000 227.7710 0002675 269.6927  90.3925 14.98329417 42326,6950.195,96.107,573.919,570.201,0.0
56462.0,STARLINK-6045,PAYLOAD,2024-02-05 22:32:48,14.98330627,0.0002668,70.0001,227.4344,269.8594,90.2259,1.6501e-05,1.04e-06,0.0,0 STARLINK-6045,1 56462U 23064Q   24036.93944654  .00000104  00000-0  16501-4 0  9999,2 56462  70.0001 227.4344 0002668 269.8594  90.2259 14.98330627 41986,6950.191,96.107,573.91,570.202,0.0
56462.0,STARLINK-6045,PAYLOAD,2024-02-06 14:34:08,14.9833212,0.0002644,70.0003,225.7515,271.2885,88.7971,4.0608e-06,-4.4e-07,0.0,0 STARLINK-6045,1 56462U 23064Q   24037.60704547 -.00000044  00000-0  40608-5 0  9999,2 56462  70.0003 225.7515 0002644 271.2885  88.7971 14.98332120 42088,6950.186,96.107,573.889,570.214,0.0
56462.0,STARLINK-6045,PAYLOAD,2024-02-06 19:22:32,14.98332532,0.0002638,70.0004,225.2467,271.7923,88.2933,8.1596e-06,4e-08,0.0,0 STARLINK-6045,1 56462U 23064Q   24037.80732481  .00000004  00000-0  81596-5 0  9995,2 56462  70.0004 225.2467 0002638 271.7923  88.2933 14.98332532 42474,6950.185,96.107,573.884,570.217,0.0
56462.0,STARLINK-6045,PAYLOAD,2024-02-06 22:34:48,14.98333172,0.0002628,70.0003,224.9098,271.2158,88.87,1.5687e-05,9.4e-07,0.0,0 STARLINK-6045,1 56462U 23064Q   24037.94084388  .00000094  00000-0  15687-4 0  9992,2 56462  70.0003 224.9098 0002628 271.2158  88.8700 14.98333172 42135,6950.183,96.107,573.875,570.222,0.0
56462.0,STARLINK-6045,PAYLOAD,2024-02-07 14:36:09,14.98330157,0.0002587,70.0005,223.2268,272.2305,87.8558,-3.0935e-08,-9.3e-07,0.0,0 STARLINK-6045,1 56462U 23064Q   24038.60844544 -.00000093  00000-0 -30935-7 0  9991,2 56462  70.0005 223.2268 0002587 272.2305  87.8558 14.98330157 42238,6950.192,96.107,573.855,570.259,0.0
56462.0,STARLINK-6045,PAYLOAD,2024-02-07 19:24:33,14.98329186,0.0002575,70.0006,222.7221,270.5585,89.5279,-5.5956e-06,-1.6e-06,0.0,0 STARLINK-6045,1 56462U 23064Q   24038.80872604 -.00000160  00000-0 -55956-5 0  9994,2 56462  70.0006 222.7221 0002575 270.5585  89.5279 14.98329186 42622,6950.195,96.107,573.85,570.271,0.0
56462.0,STARLINK-6045,PAYLOAD,2024-02-07 21:00:42,14.98329111,0.0002581,70.0006,222.5538,270.8019,89.2844,-6.9076e-06,-1.75e-06,0.0,0 STARLINK-6045,1 56462U 23064Q   24038.87548613 -.00000175  00000-0 -69076-5 0  9995,2 56462  70.0006 222.5538 0002581 270.8019  89.2844 14.98329111 42277,6950.196,96.107,573.854,570.267,0.0
56462.0,STARLINK-6045,PAYLOAD,2024-02-08 14:38:10,14.983315,0.0002575,70.0007,220.7024,267.2336,92.8529,-1.1546e-05,-2.31e-06,0.0,0 STARLINK-6045,1 56462U 23064Q   24039.60984398 -.00000231  00000-0 -11546-4 0  9992,2 56462  70.0007 220.7024 0002575 267.2336  92.8529 14.98331500 42380,6950.188,96.107,573.843,570.264,0.0
56462.0,STARLINK-6045,PAYLOAD,2024-02-08 19:26:34,14.98330892,0.0002569,70.0009,220.1976,267.3624,92.7241,-1.5085e-05,-2.73e-06,0.0,0 STARLINK-6045,1 56462U 23064Q   24039.81012427 -.00000273  00000-0 -15085-4 0  9998,2 56462  70.0009 220.1976 0002569 267.3624  92.7241 14.98330892 42772,6950.19,96.107,573.841,570.27,0.0
56462.0,STARLINK-6045,PAYLOAD,2024-02-08 21:02:42,14.98331053,0.0002575,70.0009,220.0293,268.2709,91.8155,-1.3302e-05,-2.52e-06,0.0,0 STARLINK-6045,1 56462U 23064Q   24039.87688410 -.00000252  00000-0 -13302-4 0  9992,2 56462  70.0009 220.0293 0002575 268.2709  91.8155 14.98331053 42420,6950.19,96.107,573.844,570.265,0.0
56462.0,STARLINK-6045,PAYLOAD,2024-02-09 14:40:11,14.98329909,0.0002624,70.001,218.1782,268.1242,91.9617,9.204e-06,1.7e-07,0.0,0 STARLINK-6045,1 56462U 23064Q   24040.61124340  .00000017  00000-0  92040-5 0  9997,2 56462  70.0010 218.1782 0002624 268.1242  91.9617 14.98329909 42532,6950.193,96.107,573.882,570.234,0.0
56462.0,STARLINK-6045,PAYLOAD,2024-02-09 19:28:35,14.98329954,0.0002627,70.001,217.6733,268.1655,91.9203,8.8704e-06,1.3e-07,0.0,0 STARLINK-6045,1 56462U 23064Q   24040.81152333  .00000013  00000-0  88704-5 0  9990,2 56462  70.0010 217.6733 0002627 268.1655  91.9203 14.98329954 42927,6950.193,96.107,573.884,570.232,0.0
56462.0,STARLINK-6045,PAYLOAD,2024-02-10 13:06:04,14.98328852,0.0002618,70.0012,215.822,267.2378,92.8481,-1.8446e-05,-3.13e-06,0.0,0 STARLINK-6045,1 56462U 23064Q   24041.54588485 -.00000313  00000-0 -18446-4 0  9992,2 56462  70.0012 215.8220 0002618 267.2378  92.8481 14.98328852 42678,6950.196,96.107,573.881,570.242,0.0
56462.0,STARLINK-6045,PAYLOAD,2024-02-10 19:30:36,14.9832829,0.0002628,70.0013,215.1488,266.9607,93.1251,-2.3471e-05,-3.73e-06,0.0,0 STARLINK-6045,1 56462U 23064Q   24041.81292547 -.00000373  00000-0 -23471-4 0  9993,2 56462  70.0013 215.1488 0002628 266.9607  93.1251 14.98328290 43070,6950.198,96.107,573.89,570.237,0.0
56462.0,STARLINK-6045,PAYLOAD,2024-02-10 21:06:44,14.98328255,0.0002639,70.0012,214.9805,267.4067,92.679,-2.4306e-05,-3.83e-06,0.0,0 STARLINK-6045,1 56462U 23064Q   24041.87968558 -.00000383  00000-0 -24306-4 0  9990,2 56462  70.0012 214.9805 0002639 267.4067  92.6790 14.98328255 42721,6950.198,96.107,573.897,570.229,0.0
56462.0,STARLINK-6045,PAYLOAD,2024-02-11 14:44:13,14.98331136,0.0002716,70.0011,213.1288,268.3465,91.7383,3.8478e-06,-4.7e-07,0.0,0 STARLINK-6045,1 56462U 23064Q   24042.61404271 -.00000047  00000-0  38478-5 0  9992,2 56462  70.0011 213.1288 0002716 268.3465  91.7383 14.98331136 42836,6950.189,96.107,573.942,570.167,0.0
56462.0,STARLINK-6045,PAYLOAD,2024-02-11 21:08:45,14.98333577,0.0002762,70.0012,212.4558,271.8277,88.2566,3.108e-05,2.78e-06,0.0,0 STARLINK-6045,1 56462U 23064Q   24042.88108018  .00000278  00000-0  31080-4 0  9997,2 56462  70.0012 212.4558 0002762 271.8277  88.2566 14.98333577 43230,6950.182,96.107,573.966,570.127,0.0
56462.0,STARLINK-6045,PAYLOAD,2024-02-12 14:46:14,14.98328264,0.0002798,70.0011,210.6037,273.8064,86.2775,3.3758e-06,-5.3e-07,0.0,0 STARLINK-6045,1 56462U 23064Q   24043.61544379 -.00000053  00000-0  33758-5 0  9990,2 56462  70.0011 210.6037 0002798 273.8064  86.2775 14.98328264 42984,6950.198,96.107,574.008,570.119,0.0
56462.0,STARLINK-6045,PAYLOAD,2024-02-12 19:34:38,14.98326953,0.0002829,70.0013,210.0991,274.4344,85.6492,-1.3521e-05,-2.54e-06,0.0,0 STARLINK-6045,1 56462U 23064Q   24043.81572536 -.00000254  00000-0 -13521-4 0  9997,2 56462  70.0013 210.0991 0002829 274.4344  85.6492 14.98326953 43378,6950.202,96.107,574.034,570.101,0.0
56462.0,STARLINK-6045,PAYLOAD,2024-02-12 21:10:46,14.98325363,0.0002835,70.0012,209.9305,274.3674,85.7161,-3.0795e-05,-4.6e-06,0.0,0 STARLINK-6045,1 56462U 23064Q   24043.88248695 -.00000460  00000-0 -30795-4 0  9991,2 56462  70.0012 209.9305 0002835 274.3674  85.7161 14.98325363 43025,6950.207,96.107,574.043,570.102,0.0
56462.0,STARLINK-6045,PAYLOAD,2024-02-13 14:48:15,14.98330247,0.00029,70.0011,208.0792,275.4481,84.6347,-3.356e-05,-4.93e-06,0.0,0 STARLINK-6045,1 56462U 23064Q   24044.61684484 -.00000493  00000-0 -33560-4 0  9992,2 56462  70.0011 208.0792 0002900 275.4481  84.6347 14.98330247 43138,6950.192,96.107,574.073,570.042,0.0
56462.0,STARLINK-6045,PAYLOAD,2024-02-13 19:36:39,14.98333286,0.0002836,70.0012,207.5744,275.9997,84.0839,7.1058e-06,-8e-08,0.0,0 STARLINK-6045,1 56462U 23064Q   24044.81712168 -.00000008  00000-0  71058-5 0  9991,2 56462  70.0012 207.5744 0002836 275.9997  84.0839 14.98333286 43524,6950.183,96.107,574.019,570.077,0.0
56462.0,STARLINK-6045,PAYLOAD,2024-02-13 21:12:47,14.9833427,0.0002833,70.0013,207.4063,275.6959,84.3877,1.7415e-05,1.15e-06,0.0,0 STARLINK-6045,1 56462U 23064Q   24044.88388063  .00000115  00000-0  17415-4 0  9995,2 56462  70.0013 207.4063 0002833 275.6959  84.3877 14.98334270 43170,6950.18,96.107,574.014,570.076,0.0
56462.0,STARLINK-6045,PAYLOAD,2024-02-14 14:50:16,14.98327226,0.0002765,70.0016,205.5551,272.9279,87.1563,2.762e-05,2.37e-06,0.0,0 STARLINK-6045,1 56462U 23064Q   24045.61824373  .00000237  00000-0  27620-4 0  9990,2 56462  70.0016 205.5551 0002765 272.9279  87.1563 14.98327226 43281,6950.201,96.107,573.988,570.145,0.0
56462.0,STARLINK-6045,PAYLOAD,2024-02-14 16:26:24,14.98328313,0.0002755,70.0015,205.3869,270.2499,89.8344,3.7598e-05,3.56e-06,0.0,0 STARLINK-6045,1 56462U 23064Q   24045.68500265  .00000356  00000-0  37598-4 0  9995,2 56462  70.0015 205.3869 0002755 270.2499  89.8344 14.98328313 43299,6950.198,96.107,573.978,570.148,0.0
